OBJECT_NAME,OBJECT_ID,EPOCH,MEAN_MOTION,ECCENTRICITY,INCLINATION,RA_OF_ASC_NODE,ARG_OF_PERICENTER,MEAN_ANOMALY,EPHEMERIS_TYPE,CLASSIFICATION_TYPE,NORAD_CAT_ID,ELEMENT_SET_NO,REV_AT_EPOCH,BSTAR,MEAN_MOTION_DOT,MEAN_MOTION_DDOT
STARLINK-30056,2023-119W,2026-07-02T05:26:49.299072,15.27578179,.00006416,43.0026,154.6864,279.9321,80.1459,0,U,57622,999,16060,.45128909E-4,.98E-5,0
STARLINK-30100,2023-119X,2026-07-02T05:32:22.687296,15.27575968,.00009036,43.0029,154.7405,278.9329,81.1420,0,U,57623,999,16060,.41768101E-4,.887E-5,0
STARLINK-30309,2023-122A,2026-07-02T05:41:29.707296,15.27628945,.00009618,42.9993,165.7613,291.2628,68.8121,0,U,57632,999,15972,.49938656E-3,.13526E-3,0
STARLINK-30306,2023-122B,2026-07-02T05:47:05.907840,15.27567546,.00017244,43.0054,165.7888,274.8787,85.1867,0,U,57633,999,15972,-.18487648E-4,-.771E-5,0
STARLINK-30323,2023-122C,2026-07-02T05:10:09.682176,15.27591328,.00005486,42.9994,154.5664,236.1226,123.9574,0,U,57634,999,15985,.10701972E-4,.33E-6,0
STARLINK-30329,2023-122D,2026-07-02T05:56:18.489408,15.27598297,.00003663,42.9987,165.8348,247.7212,112.3601,0,U,57635,999,15972,.91144635E-4,.2249E-4,0
STARLINK-30330,2023-122E,2026-07-02T06:01:53.176224,15.27578171,.0001057,43.0002,165.8650,272.5180,87.5551,0,U,57636,999,15972,.25357576E-4,.436E-5,0
STARLINK-30311,2023-122F,2026-07-02T00:05:24.258336,15.27573268,.00012729,43.0045,166.5976,264.5972,95.4735,0,U,57637,999,15969,.55425887E-4,.1263E-4,0
STARLINK-30328,2023-122G,2026-07-02T04:59:02.329440,15.27584725,.00010621,43.0007,154.4523,269.7453,90.3277,0,U,57638,999,15986,.72870237E-4,.1744E-4,0
STARLINK-30326,2023-122H,2026-07-02T05:24:53.320032,15.27569985,.00011698,43.0026,165.6655,256.2748,103.7973,0,U,57639,999,15972,-.16021907E-4,-.703E-5,0
STARLINK-30324,2023-122J,2026-07-02T05:50:46.722048,15.27582273,.00009739,43.0020,165.8053,266.0073,94.0667,0,U,57640,999,15971,.43038494E-4,.923E-5,0
STARLINK-30312,2023-122K,2026-07-02T06:12:46.292832,15.27585549,.00012695,43.0070,165.0652,250.8491,109.2224,0,U,57641,999,15973,.28515055E-3,.7594E-4,0
STARLINK-30263,2023-122L,2026-07-02T00:10:58.749024,15.27557755,.00014193,43.0042,166.6237,267.4211,92.6479,0,U,57642,999,15969,.1400421E-3,.3591E-4,0
STARLINK-30280,2023-122M,2026-07-01T22:47:53.990880,15.27572144,.00024345,43.0051,167.0471,251.4725,108.5863,0,U,57643,999,15968,-.2180239E-4,-.862E-5,0
STARLINK-30247,2023-122N,2026-07-02T00:16:29.910720,15.27584018,.00015959,43.0028,166.6568,265.6852,94.3818,0,U,57644,999,15969,.42660471E-4,.912E-5,0
STARLINK-30277,2023-122P,2026-07-01T19:57:38.588832,15.27561324,.00016332,43.0060,25.7873,269.3679,90.6986,0,U,57645,999,16133,-.28661275E-4,-.105E-4,0
STARLINK-30265,2023-122Q,2026-07-01T16:10:54.722208,15.27580677,.00019736,43.0067,168.4206,271.9909,88.0717,0,U,57646,999,15964,.64227676E-4,.1505E-4,0
STARLINK-30286,2023-122R,2026-07-02T05:10:04.318464,15.27582449,.00013757,43.0032,165.6003,283.1738,76.8960,0,U,57647,999,15972,.528347E-4,.1192E-4,0
STARLINK-30243,2023-122S,2026-07-02T05:35:59.064000,15.27575417,.00011918,43.0007,165.7273,261.8992,98.1724,0,U,57648,999,15972,.17476184E-4,.219E-5,0
STARLINK-30299,2023-122U,2026-07-02T05:15:37.229760,15.27584930,.00018079,43.0031,165.6252,274.9345,85.1300,0,U,57650,999,15972,.53669409E-4,.1215E-4,0
STARLINK-30294,2023-122V,2026-07-02T04:51:40.751136,15.27578327,.00021074,43.0067,154.4854,270.3430,89.7180,0,U,57651,999,15985,.31146434E-4,.595E-5,0
STARLINK-30276,2023-122W,2026-07-02T05:30:26.702208,15.27567001,.0001576,43.0012,165.6973,268.2291,91.8380,0,U,57652,999,15972,-.32601558E-4,-.1159E-4,0
STARLINK-30289,2023-122X,2026-07-02T04:35:11.984352,15.27581474,.00015673,43.0027,155.2042,261.0827,98.9847,0,U,57653,999,15983,.72846435E-4,.1743E-4,0
STARLINK-30267,2023-124A,2026-07-01T20:29:04.455456,15.30203370,.0001153,53.1621,36.7478,77.7677,282.3453,0,U,57663,999,16104,.4676995E-5,-.221E-5,0
STARLINK-30298,2023-124C,2026-07-01T21:10:07.582080,15.34419580,.00010655,53.1591,36.2342,103.4695,256.6426,0,U,57665,999,16105,.32942619E-3,.10777E-3,0
STARLINK-30301,2023-124D,2026-07-02T00:19:02.899200,15.34070076,.00029369,53.1596,96.3572,76.8512,283.2818,0,U,57666,999,16019,.11504367E-2,.38289E-3,0
STARLINK-30275,2023-124E,2026-07-01T07:36:14.413536,15.34390020,.00010211,53.1605,38.9019,100.3498,259.7620,0,U,57667,999,16096,.78060525E-4,.2261E-4,0
STARLINK-30278,2023-124F,2026-07-02T06:00:02.999808,15.34368842,.00011437,53.1604,34.8406,82.3472,255.8979,0,U,57668,999,571,.65750057E-4,.1844E-4,0
STARLINK-30271,2023-124G,2026-07-01T21:09:25.113888,15.31719572,.00012233,53.1610,35.9220,95.4943,264.6198,0,U,57669,999,16105,.12056301E-3,.338E-4,0
STARLINK-30322,2023-124H,2026-07-01T23:23:07.324512,15.34926378,.00087257,53.1593,35.9038,187.3903,172.6972,0,U,57670,999,16106,-.11002934E-1,-.361557E-2,0
STARLINK-30296,2023-124J,2026-07-02T02:27:54.404064,15.34256766,.00008531,53.1615,35.4136,85.6846,274.4254,0,U,57671,999,16108,.22802341E-2,.77107E-3,0
STARLINK-30274,2023-124K,2026-07-01T21:07:08.844672,15.34385950,.00009001,53.1597,36.2614,70.8093,289.3007,0,U,57672,999,16105,-.11774649E-3,-.435E-4,0
STARLINK-30316,2023-124L,2026-07-01T21:19:11.788032,15.34411973,.00012812,53.1599,36.2151,104.3238,255.7907,0,U,57673,999,16105,.1024484E-3,.3088E-4,0
STARLINK-30313,2023-124P,2026-07-02T00:00:02.000160,15.30145453,.00010919,53.1596,36.0247,89.3976,50.4900,0,U,57676,999,582,.17844655E-2,.52778E-3,0
STARLINK-30303,2023-124Q,2026-07-01T20:47:09.167712,15.30203751,.00011526,53.1602,36.1390,89.1024,271.0108,0,U,57677,999,16105,.58386894E-4,.1371E-4,0
STARLINK-30320,2023-124R,2026-07-01T20:17:49.329312,15.34408996,.00010792,53.1596,22.5648,88.6084,271.5042,0,U,57678,999,16124,.13071662E-3,.4044E-4,0
STARLINK-30321,2023-124S,2026-07-01T21:02:20.399136,15.30212205,.00014885,53.1612,36.2071,94.5713,265.5458,0,U,57679,999,16105,.96005577E-4,.2486E-4,0
STARLINK-30283,2023-124T,2026-07-01T21:58:33.946752,15.30200515,.00011126,53.1623,36.4204,90.7633,269.3495,0,U,57680,999,16105,.30114361E-4,.533E-5,0
STARLINK-30273,2023-124U,2026-07-01T21:16:09.444288,15.31717622,.00014811,53.1600,35.9618,98.5378,261.5791,0,U,57681,999,16105,.24655441E-3,.7297E-4,0
STARLINK-30297,2023-124V,2026-07-01T23:28:04.079136,15.30204747,.00010548,53.1606,36.1598,102.5346,257.5773,0,U,57682,999,16106,.80080572E-4,.2014E-4,0
STARLINK-30295,2023-124W,2026-07-01T23:11:06.643968,15.34435281,.00009548,53.1602,36.0031,86.3452,273.7660,0,U,57683,999,16106,.18025954E-3,.5726E-4,0
STARLINK-30288,2023-129A,2026-07-01T18:13:54.010560,15.27581490,.00023823,43.0062,194.0775,266.7603,93.2976,0,U,57698,999,15812,.50873695E-4,.1138E-4,0
STARLINK-30347,2023-129B,2026-07-01T17:14:46.013568,15.27568954,.00017508,43.0057,182.6959,269.2812,90.7840,0,U,57699,999,15825,.65603208E-4,.1543E-4,0
STARLINK-30332,2023-129C,2026-07-01T12:32:52.346976,15.27569556,.0001655,43.0001,202.5360,266.8704,93.1958,0,U,57700,999,15786,.90031132E-4,.2215E-4,0
STARLINK-30345,2023-129D,2026-07-01T17:22:06.973248,15.27569726,.00009285,43.0012,193.8163,278.4179,81.6568,0,U,57701,999,15798,.6717878E-5,-.77E-6,0
STARLINK-30333,2023-129E,2026-07-01T07:29:25.379520,15.27569993,.00011675,43.0005,195.8878,259.9171,100.1549,0,U,57702,999,15806,-.7515006E-5,-.469E-5,0
STARLINK-30336,2023-129F,2026-07-01T08:06:24.645600,15.27582641,.00012892,42.9994,196.0804,270.6524,89.4180,0,U,57703,999,15792,.44817165E-4,.971E-5,0
STARLINK-30346,2023-129G,2026-07-01T12:22:58.712448,15.27580515,.00013172,43.0012,194.8375,267.4265,92.6436,0,U,57704,999,15795,.4614208E-4,.1008E-4,0
STARLINK-30327,2023-129K,2026-07-01T08:00:03.000384,15.41002970,.00273575,42.9947,157.6118,113.7875,282.2949,0,U,57707,999,579,.21672861E-2,.93463E-3,0
STARLINK-30315,2023-129L,2026-07-01T17:25:47.942976,15.27575840,.00012649,42.9997,193.8304,269.1468,90.9239,0,U,57708,999,15812,.6638462E-5,-.79E-6,0
STARLINK-30287,2023-129M,2026-07-01T17:10:59.818368,15.27581386,.00010933,42.9998,193.7579,265.5175,94.5552,0,U,57709,999,15812,.29635566E-4,.554E-5,0
STARLINK-30335,2023-129N,2026-07-01T17:16:34.293504,15.27569555,.00012127,43.0023,193.7808,279.8026,80.2689,0,U,57710,999,15812,-.527284E-6,-.277E-5,0
STARLINK-30318,2023-129P,2026-07-01T07:34:58.349568,15.27577327,.00028384,43.0031,195.9020,275.2127,84.8401,0,U,57711,999,15792,.37073884E-4,.758E-5,0
STARLINK-30348,2023-129Q,2026-07-01T23:59:04.602048,15.27597093,.00019034,43.0002,192.4400,261.8989,98.1647,0,U,57712,999,15816,.15772547E-3,.4083E-4,0
STARLINK-30349,2023-129R,2026-07-01T17:53:33.385056,15.27575291,.00010785,43.0029,193.9704,297.8096,62.2647,0,U,57713,999,15798,.27903893E-4,.506E-5,0
STARLINK-30341,2023-129S,2026-07-01T17:23:14.584704,15.27581464,.000135,43.0033,197.2143,277.5983,82.4715,0,U,57714,999,15808,.77420875E-4,.1869E-4,0
STARLINK-30300,2023-129T,2026-07-01T17:36:54.519840,15.27578354,.00008252,42.9996,193.8879,282.9236,77.1524,0,U,57715,999,15812,.11776705E-3,.298E-4,0
STARLINK-30281,2023-129U,2026-07-01T18:08:21.825888,15.27574271,.00015814,43.0029,194.0497,268.5276,91.5394,0,U,57716,999,15798,.11457067E-4,.53E-6,0
STARLINK-30325,2023-129V,2026-07-01T17:47:59.856864,15.27583279,.00013017,43.0016,193.9440,269.8333,90.2370,0,U,57717,999,15812,.27892955E-4,.506E-5,0
STARLINK-30338,2023-129W,2026-07-02T00:19:25.612032,15.27583975,.00016117,43.0040,192.5415,273.6834,86.3834,0,U,57718,999,15816,.91677723E-4,.2262E-4,0
STARLINK-30334,2023-129X,2026-07-02T00:13:53.400576,15.27579169,.000135,43.0039,192.5130,281.3835,78.6865,0,U,57719,999,15801,.21281941E-3,.5598E-4,0
STARLINK-30375,2023-131A,2026-07-01T11:31:28.549056,15.27580994,.00016069,43.0010,234.9811,271.1932,88.8736,0,U,57732,999,15750,.51630267E-4,.1159E-4,0
STARLINK-30310,2023-131B,2026-07-01T21:25:51.884832,15.27586375,.00010577,42.9970,255.0472,270.2257,89.8473,0,U,57733,999,15730,.98094971E-4,.2439E-4,0
STARLINK-30365,2023-131C,2026-07-01T21:49:16.436064,15.27575407,.0002923,43.0055,247.4776,262.5811,97.4709,0,U,57734,999,15738,.32068383E-4,.62E-5,0
